AEROCUBE 5C             
1 40965U 15058B   26068.71197411  .00004804  00000+0  42791-3 0  9997
2 40965  64.7674 211.9094 0130672 102.4860 259.0908 14.90857126350820
STARLINK-3838           
1 52352U 22045X   26068.68524972  .00000035  00000+0  20287-4 0  9995
2 52352  53.2167 199.1415 0001123  84.4576 275.6545 15.08843890215787
